{
  "type": "FeatureCollection",
  "features": [
    {
      "type": "Feature",
      "properties": {
        "norad_id": 43262,
        "name": "GAOFEN-1 04",
        "group": "resource",
        "lat": 33.21144887312895,
        "lon": -119.20747941113562,
        "alt_km": 638.6001784548653,
        "timestamp": "2025-12-23T14:49:08.987259+00:00",
        "meta_object_name": "GAOFEN-1 04",
        "meta_object_id": "2018-031D",
        "meta_epoch": "2025-12-23T07:39:09.256032",
        "meta_mean_motion": 14.76425725,
        "meta_eccentricity": 6.03e-05,
        "meta_inclination": 98.0793,
        "meta_ra_of_asc_node": 55.158,
        "meta_arg_of_pericenter": 57.4339,
        "meta_mean_anomaly": 302.6929,
        "meta_ephemeris_type": 0,
        "meta_classification_type": "U",
        "meta_norad_cat_id": 43262,
        "meta_element_set_no": 999,
        "meta_rev_at_epoch": 41673,
        "meta_bstar": 0.00012930572,
        "meta_mean_motion_dot": 8.47e-06,
        "meta_mean_motion_ddot": 0,
        "tle_line1": "1 43262U 18031D   25357.31885713  .00000847  00000+0  12931-3 0  9995",
        "tle_line2": "2 43262  98.0793  55.1580 0000603  57.4339 302.6929 14.76425725416734"
      },
      "geometry": {
        "type": "Point",
        "coordinates": [
          -119.20747941113562,
          33.21144887312895
        ]
      }
    },
    {
      "type": "Feature",
      "properties": {
        "norad_id": 43437,
        "name": "SENTINEL-3B",
        "group": "resource",
        "lat": 10.140660864538704,
        "lon": -115.79817627968941,
        "alt_km": 803.9542861459277,
        "timestamp": "2025-12-23T14:49:08.987271+00:00",
        "meta_object_name": "SENTINEL-3B",
        "meta_object_id": "2018-039A",
        "meta_epoch": "2025-12-23T03:55:41.260800",
        "meta_mean_motion": 14.26737963,
        "meta_eccentricity": 0.00016141,
        "meta_inclination": 98.6253,
        "meta_ra_of_asc_node": 62.199,
        "meta_arg_of_pericenter": 91.6163,
        "meta_mean_anomaly": 268.5202,
        "meta_ephemeris_type": 0,
        "meta_classification_type": "U",
        "meta_norad_cat_id": 43437,
        "meta_element_set_no": 999,
        "meta_rev_at_epoch": 39902,
        "meta_bstar": 7.7590602e-05,
        "meta_mean_motion_dot": 1.44e-06,
        "meta_mean_motion_ddot": 0,
        "tle_line1": "1 43437U 18039A   25357.16367200  .00000144  00000+0  77591-4 0  9990",
        "tle_line2": "2 43437  98.6253  62.1990 0001614  91.6163 268.5202 14.26737963399027"
      },
      "geometry": {
        "type": "Point",
        "coordinates": [
          -115.79817627968941,
          10.140660864538704
        ]
      }
    },
    {
      "type": "Feature",
      "properties": {
        "norad_id": 43461,
        "name": "GAOFEN-5 01",
        "group": "resource",
        "lat": 35.10508656266172,
        "lon": -45.21134640742001,
        "alt_km": 689.7112395080485,
        "timestamp": "2025-12-23T14:49:08.987283+00:00",
        "meta_object_name": "GAOFEN-5 01",
        "meta_object_id": "2018-043A",
        "meta_epoch": "2025-12-22T22:12:48.981024",
        "meta_mean_motion": 14.60420499,
        "meta_eccentricity": 5.17e-05,
        "meta_inclination": 98.4342,
        "meta_ra_of_asc_node": 320.0714,
        "meta_arg_of_pericenter": 264.8511,
        "meta_mean_anomaly": 95.263,
        "meta_ephemeris_type": 0,
        "meta_classification_type": "U",
        "meta_norad_cat_id": 43461,
        "meta_element_set_no": 999,
        "meta_rev_at_epoch": 40596,
        "meta_bstar": 0.00010514,
        "meta_mean_motion_dot": 4.6e-06,
        "meta_mean_motion_ddot": 0,
        "tle_line1": "1 43461U 18043A   25356.92556691  .00000460  00000+0  10514-3 0  9991",
        "tle_line2": "2 43461  98.4342 320.0714 0000517 264.8511  95.2630 14.60420499405965"
      },
      "geometry": {
        "type": "Point",
        "coordinates": [
          -45.21134640742001,
          35.10508656266172
        ]
      }
    },
    {
      "type": "Feature",
      "properties": {
        "norad_id": 43484,
        "name": "GAOFEN-6",
        "group": "resource",
        "lat": -56.919703169913916,
        "lon": 73.66968352617573,
        "alt_km": 647.0627528725445,
        "timestamp": "2025-12-23T14:49:08.987295+00:00",
        "meta_object_name": "GAOFEN-6",
        "meta_object_id": "2018-048A",
        "meta_epoch": "2025-12-23T06:56:53.460960",
        "meta_mean_motion": 14.76584907,
        "meta_eccentricity": 0.00126771,
        "meta_inclination": 97.802,
        "meta_ra_of_asc_node": 61.202,
        "meta_arg_of_pericenter": 32.4785,
        "meta_mean_anomaly": 327.7203,
        "meta_ephemeris_type": 0,
        "meta_classification_type": "U",
        "meta_norad_cat_id": 43484,
        "meta_element_set_no": 999,
        "meta_rev_at_epoch": 40743,
        "meta_bstar": 0.00017089417,
        "meta_mean_motion_dot": 1.145e-05,
        "meta_mean_motion_ddot": 0,
        "tle_line1": "1 43484U 18048A   25357.28950765  .00001145  00000+0  17089-3 0  9996",
        "tle_line2": "2 43484  97.8020  61.2020 0012677  32.4785 327.7203 14.76584907407437"
      },
      "geometry": {
        "type": "Point",
        "coordinates": [
          73.66968352617573,
          -56.919703169913916
        ]
      }
    },
    {
      "type": "Feature",
      "properties": {
        "norad_id": 43585,
        "name": "GAOFEN-11 01",
        "group": "resource",
        "lat": 73.2236705917489,
        "lon": 35.83791219355772,
        "alt_km": 413.7857323123535,
        "timestamp": "2025-12-23T14:49:08.987306+00:00",
        "meta_object_name": "GAOFEN-11 01",
        "meta_object_id": "2018-063A",
        "meta_epoch": "2025-12-23T06:44:52.539360",
        "meta_mean_motion": 15.49506079,
        "meta_eccentricity": 0.00038857,
        "meta_inclination": 97.1545,
        "meta_ra_of_asc_node": 60.1289,
        "meta_arg_of_pericenter": 258.4815,
        "meta_mean_anomaly": 101.6001,
        "meta_ephemeris_type": 0,
        "meta_classification_type": "U",
        "meta_norad_cat_id": 43585,
        "meta_element_set_no": 999,
        "meta_rev_at_epoch": 41305,
        "meta_bstar": 0.00031065002,
        "meta_mean_motion_dot": 0.00017036,
        "meta_mean_motion_ddot": 0,
        "tle_line1": "1 43585U 18063A   25357.28116365  .00017036  00000+0  31065-3 0  9991",
        "tle_line2": "2 43585  97.1545  60.1289 0003885 258.4815 101.6001 15.49506079413059"
      },
      "geometry": {
        "type": "Point",
        "coordinates": [
          35.83791219355772,
          73.2236705917489
        ]
      }
    },
    {
      "type": "Feature",
      "properties": {
        "norad_id": 43613,
        "name": "ICESAT-2",
        "group": "resource",
        "lat": 63.1410502803983,
        "lon": -120.29173701069473,
        "alt_km": 473.5726554292796,
        "timestamp": "2025-12-23T14:49:08.987319+00:00",
        "meta_object_name": "ICESAT-2",
        "meta_object_id": "2018-070A",
        "meta_epoch": "2025-12-23T05:06:53.243136",
        "meta_mean_motion": 15.28299345,
        "meta_eccentricity": 0.00031693,
        "meta_inclination": 92.004,
        "meta_ra_of_asc_node": 243.5639,
        "meta_arg_of_pericenter": 119.1581,
        "meta_mean_anomaly": 240.9986,
        "meta_ephemeris_type": 0,
        "meta_classification_type": "U",
        "meta_norad_cat_id": 43613,
        "meta_element_set_no": 999,
        "meta_rev_at_epoch": 40558,
        "meta_bstar": 0.00046502222,
        "meta_mean_motion_dot": 0.0001282,
        "meta_mean_motion_ddot": 0,
        "tle_line1": "1 43613U 18070A   25357.21311624  .00012820  00000+0  46502-3 0  9997",
        "tle_line2": "2 43613  92.0040 243.5639 0003169 119.1581 240.9986 15.28299345405589"
      },
      "geometry": {
        "type": "Point",
        "coordinates": [
          -120.29173701069473,
          63.1410502803983
        ]
      }
    },
    {
      "type": "Feature",
      "properties": {
        "norad_id": 43719,
        "name": "HYSIS",
        "group": "resource",
        "lat": 58.471467144984175,
        "lon": 47.27503491698677,
        "alt_km": 627.2454822079162,
        "timestamp": "2025-12-23T14:49:08.987331+00:00",
        "meta_object_name": "HYSIS",
        "meta_object_id": "2018-096A",
        "meta_epoch": "2025-12-23T08:03:18.921888",
        "meta_mean_motion": 14.78671914,
        "meta_eccentricity": 9.075e-05,
        "meta_inclination": 98.0084,
        "meta_ra_of_asc_node": 60.2613,
        "meta_arg_of_pericenter": 54.4466,
        "meta_mean_anomaly": 305.6829,
        "meta_ephemeris_type": 0,
        "meta_classification_type": "U",
        "meta_norad_cat_id": 43719,
        "meta_element_set_no": 999,
        "meta_rev_at_epoch": 38143,
        "meta_bstar": 0.00019371977,
        "meta_mean_motion_dot": 1.368e-05,
        "meta_mean_motion_ddot": 0,
        "tle_line1": "1 43719U 18096A   25357.33563567  .00001368  00000+0  19372-3 0  9990",
        "tle_line2": "2 43719  98.0084  60.2613 0000907  54.4466 305.6829 14.78671914381438"
      },
      "geometry": {
        "type": "Point",
        "coordinates": [
          47.27503491698677,
          58.471467144984175
        ]
      }
    }
  ]
}